start=new Date('2021-10-15T00:00:00.000Z').valueOf();
sats=[{"REV_AT_EPOCH":"3026","MEAN_MOTION_DOT":"0.00002467","PERIAPSIS":"545.925","OBJECT_TYPE":"PAYLOAD","REF_FRAME":"TEME","CLASSIFICATION_TYPE":"U","MEAN_ELEMENT_THEORY":"SGP4","CENTER_NAME":"EARTH","BSTAR":"0.00018447000000","FILE":"3161855","SITE":"AFETR","SEMIMAJOR_AXIS":"6925.357","DECAY_DATE":null,"ARG_OF_PERICENTER":"70.0916","LAUNCH_DATE":"2021-04-07","COUNTRY_CODE":"US","NORAD_CAT_ID":"48111","TIME_SYSTEM":"UTC","MEAN_ANOMALY":"290.0275","OBJECT_NAME":"STARLINK-2448","ELEMENT_SET_NO":"999","MEAN_MOTION_DDOT":"0.0000000000000","TLE_LINE2":"2 48111  53.0585 178.3092 0001874  70.0916 290.0275 15.06397093 30265","RA_OF_ASC_NODE":"178.3092","INCLINATION":"53.0585","PERIOD":"95.592","EPHEMERIS_TYPE":"0","GP_ID":"187137959","MEAN_MOTION":"15.06397093","OBJECT_ID":"2021-027V","APOAPSIS":"548.520","EPOCH":"2021-10-14T02:40:36.654240","TLE_LINE1":"1 48111U 21027V   21287.11153535  .00002467  00000-0  18447-3 0  9997","RCS_SIZE":"LARGE","ECCENTRICITY":"0.00018740"},{"OBJECT_NAME":"STARLINK-2449","MEAN_ANOMALY":"294.0051","TIME_SYSTEM":"UTC","COUNTRY_CODE":"US","LAUNCH_DATE":"2021-04-07","NORAD_CAT_ID":"48112","DECAY_DATE":null,"ARG_OF_PERICENTER":"66.1131","SEMIMAJOR_AXIS":"6925.373","SITE":"AFETR","FILE":"3162124","BSTAR":"-0.00002452800000","MEAN_ELEMENT_THEORY":"SGP4","CENTER_NAME":"EARTH","CLASSIFICATION_TYPE":"U","REF_FRAME":"TEME","OBJECT_TYPE":"PAYLOAD","PERIAPSIS":"545.966","MEAN_MOTION_DOT":"-0.00000647","REV_AT_EPOCH":"2965","ECCENTRICITY":"0.00018370","TLE_LINE1":"1 48112U 21027W   21287.15253163 -.00000647  00000-0 -24528-4 0  9998","RCS_SIZE":"LARGE","EPOCH":"2021-10-14T03:39:38.732832","APOAPSIS":"548.511","OBJECT_ID":"2021-027W","MEAN_MOTION":"15.06391919","GP_ID":"187146487","EPHEMERIS_TYPE":"0","PERIOD":"95.593","INCLINATION":"53.0568","RA_OF_ASC_NODE":"193.1321","TLE_LINE2":"2 48112  53.0568 193.1321 0001837  66.1131 294.0051 15.06391919 29659","MEAN_MOTION_DDOT":"0.0000000000000","ELEMENT_SET_NO":"999"},{"MEAN_ANOMALY":"293.3067","OBJECT_NAME":"STARLINK-2450","TIME_SYSTEM":"UTC","SEMIMAJOR_AXIS":"6925.378","NORAD_CAT_ID":"48113","LAUNCH_DATE":"2021-04-07","COUNTRY_CODE":"US","DECAY_DATE":null,"ARG_OF_PERICENTER":"66.8126","CLASSIFICATION_TYPE":"U","REF_FRAME":"TEME","FILE":"3162534","SITE":"AFETR","BSTAR":"-0.00014922000000","MEAN_ELEMENT_THEORY":"SGP4","CENTER_NAME":"EARTH","OBJECT_TYPE":"PAYLOAD","PERIAPSIS":"545.899","REV_AT_EPOCH":"2976","MEAN_MOTION_DOT":"-0.00002503","TLE_LINE1":"1 48113U 21027X   21287.43591750 -.00002503  00000-0 -14922-3 0  9996","RCS_SIZE":"LARGE","ECCENTRICITY":"0.00019410","APOAPSIS":"548.587","EPOCH":"2021-10-14T10:27:43.272000","EPHEMERIS_TYPE":"0","OBJECT_ID":"2021-027X","MEAN_MOTION":"15.06390317","GP_ID":"187156365","PERIOD":"95.593","INCLINATION":"53.0556","RA_OF_ASC_NODE":"186.8568","TLE_LINE2":"2 48113  53.0556 186.8568 0001941  66.8126 293.3067 15.06390317 29768","MEAN_MOTION_DDOT":"0.0000000000000","ELEMENT_SET_NO":"999"},{"APOAPSIS":"548.622","EPOCH":"2021-10-14T03:09:07.353504","EPHEMERIS_TYPE":"0","MEAN_MOTION":"15.06390951","GP_ID":"187139211","OBJECT_ID":"2021-027Y","RCS_SIZE":"LARGE","TLE_LINE1":"1 48114U 21027Y   21287.13133511 -.00000937  00000-0 -43982-4 0  9999","ECCENTRICITY":"0.00019940","ELEMENT_SET_NO":"999","MEAN_MOTION_DDOT":"0.0000000000000","INCLINATION":"53.0561","PERIOD":"95.593","RA_OF_ASC_NODE":"183.2265","TLE_LINE2":"2 48114  53.0561 183.2265 0001994  59.3695 300.7490 15.06390951 30192","SEMIMAJOR_AXIS":"6925.376","DECAY_DATE":null,"ARG_OF_PERICENTER":"59.3695","COUNTRY_CODE":"US","LAUNCH_DATE":"2021-04-07","NORAD_CAT_ID":"48114","CLASSIFICATION_TYPE":"U","REF_FRAME":"TEME","MEAN_ELEMENT_THEORY":"SGP4","CENTER_NAME":"EARTH","BSTAR":"-0.00004398200000","FILE":"3161855","SITE":"AFETR","MEAN_ANOMALY":"300.7490","OBJECT_NAME":"STARLINK-2451","TIME_SYSTEM":"UTC","PERIAPSIS":"545.860","REV_AT_EPOCH":"3019","MEAN_MOTION_DOT":"-0.00000937","OBJECT_TYPE":"PAYLOAD"},{"MEAN_ANOMALY":"296.6468","OBJECT_NAME":"STARLINK-2452","TIME_SYSTEM":"UTC","SEMIMAJOR_AXIS":"6925.392","LAUNCH_DATE":"2021-04-07","COUNTRY_CODE":"US","NORAD_CAT_ID":"48115","DECAY_DATE":null,"ARG_OF_PERICENTER":"63.4704","REF_FRAME":"TEME","CLASSIFICATION_TYPE":"U","BSTAR":"-0.00004454300000","FILE":"3162136","SITE":"AFETR","MEAN_ELEMENT_THEORY":"SGP4","CENTER_NAME":"EARTH","OBJECT_TYPE":"PAYLOAD","PERIAPSIS":"546.022","REV_AT_EPOCH":"2990","MEAN_MOTION_DOT":"-0.00000945","RCS_SIZE":"LARGE","TLE_LINE1":"1 48115U 21027Z   21287.42483577 -.00000945  00000-0 -44543-4 0  9995","ECCENTRICITY":"0.00017830","APOAPSIS":"548.492","EPOCH":"2021-10-14T10:11:45.810528","EPHEMERIS_TYPE":"0","OBJECT_ID":"2021-027Z","MEAN_MOTION":"15.06385836","GP_ID":"187146085","PERIOD":"95.593","INCLINATION":"53.0533","TLE_LINE2":"2 48115  53.0533 176.9021 0001783  63.4704 296.6468 15.06385836 29905","RA_OF_ASC_NODE":"176.9021","MEAN_MOTION_DDOT":"0.0000000000000","ELEMENT_SET_NO":"999"},{"ELEMENT_SET_NO":"999","MEAN_MOTION_DDOT":"0.0000000000000","PERIOD":"95.593","INCLINATION":"53.0569","TLE_LINE2":"2 48116  53.0569 186.8826 0001607  68.6134 291.5026 15.06389222 29768","RA_OF_ASC_NODE":"186.8826","EPOCH":"2021-10-14T10:22:24.474144","APOAPSIS":"548.359","MEAN_MOTION":"15.06389222","GP_ID":"187152716","OBJECT_ID":"2021-027AA","EPHEMERIS_TYPE":"0","ECCENTRICITY":"0.00016070","RCS_SIZE":"LARGE","TLE_LINE1":"1 48116U 21027AA  21287.43222771 -.00000879  00000-0 -40137-4 0  9995","PERIAPSIS":"546.134","MEAN_MOTION_DOT":"-0.00000879","REV_AT_EPOCH":"2976","OBJECT_TYPE":"PAYLOAD","ARG_OF_PERICENTER":"68.6134","DECAY_DATE":null,"LAUNCH_DATE":"2021-04-07","COUNTRY_CODE":"US","NORAD_CAT_ID":"48116","SEMIMAJOR_AXIS":"6925.382","MEAN_ELEMENT_THEORY":"SGP4","CENTER_NAME":"EARTH","SITE":"AFETR","FILE":"3162366","BSTAR":"-0.00004013700000","CLASSIFICATION_TYPE":"U","REF_FRAME":"TEME","OBJECT_NAME":"STARLINK-2454","MEAN_ANOMALY":"291.5026","TIME_SYSTEM":"UTC"},{"APOAPSIS":"548.389","EPOCH":"2021-10-14T09:42:36.207936","EPHEMERIS_TYPE":"0","GP_ID":"187138960","MEAN_MOTION":"15.06391679","OBJECT_ID":"2021-027AB","TLE_LINE1":"1 48117U 21027AB  21287.40458574 -.00002060  00000-0 -11948-3 0  9996","RCS_SIZE":"LARGE","ECCENTRICITY":"0.00016610","ELEMENT_SET_NO":"999","MEAN_MOTION_DDOT":"0.0000000000000","PERIOD":"95.593","INCLINATION":"53.0542","TLE_LINE2":"2 48117  53.0542 166.9914 0001661  73.4797 286.6374 15.06391679 30443","RA_OF_ASC_NODE":"166.9914","SEMIMAJOR_AXIS":"6925.374","ARG_OF_PERICENTER":"73.4797","DECAY_DATE":null,"NORAD_CAT_ID":"48117","LAUNCH_DATE":"2021-04-07","COUNTRY_CODE":"US","CLASSIFICATION_TYPE":"U","REF_FRAME":"TEME","MEAN_ELEMENT_THEORY":"SGP4","CENTER_NAME":"EARTH","SITE":"AFETR","FILE":"3161855","BSTAR":"-0.00011948000000","MEAN_ANOMALY":"286.6374","OBJECT_NAME":"STARLINK-2455","TIME_SYSTEM":"UTC","PERIAPSIS":"546.089","REV_AT_EPOCH":"3044","MEAN_MOTION_DOT":"-0.00002060","OBJECT_TYPE":"PAYLOAD"},{"INCLINATION":"53.0546","PERIOD":"95.592","RA_OF_ASC_NODE":"168.4287","TLE_LINE2":"2 48118  53.0546 168.4287 0001671  75.0518 285.0655 15.06394852 30393","MEAN_MOTION_DDOT":"0.0000000000000","ELEMENT_SET_NO":"999","TLE_LINE1":"1 48118U 21027AC  21287.08390483 -.00001035  00000-0 -50607-4 0  9992","RCS_SIZE":"LARGE","ECCENTRICITY":"0.00016710","APOAPSIS":"548.387","EPOCH":"2021-10-14T02:00:49.377312","EPHEMERIS_TYPE":"0","OBJECT_ID":"2021-027AC","MEAN_MOTION":"15.06394852","GP_ID":"187138712","OBJECT_TYPE":"PAYLOAD","PERIAPSIS":"546.072","REV_AT_EPOCH":"3039","MEAN_MOTION_DOT":"-0.00001035","MEAN_ANOMALY":"285.0655","OBJECT_NAME":"STARLINK-2458","TIME_SYSTEM":"UTC","SEMIMAJOR_AXIS":"6925.364","LAUNCH_DATE":"2021-04-07","NORAD_CAT_ID":"48118","COUNTRY_CODE":"US","DECAY_DATE":null,"ARG_OF_PERICENTER":"75.0518","CLASSIFICATION_TYPE":"U","REF_FRAME":"TEME","FILE":"3161855","BSTAR":"-0.00005060700000","SITE":"AFETR","CENTER_NAME":"EARTH","MEAN_ELEMENT_THEORY":"SGP4"},{"MEAN_MOTION_DDOT":"0.0000000000000","ELEMENT_SET_NO":"999","PERIOD":"95.592","INCLINATION":"53.0536","TLE_LINE2":"2 48119  53.0536 168.4437 0001869  68.4404 291.6784 15.06403592 30386","RA_OF_ASC_NODE":"168.4437","EPOCH":"2021-10-14T01:55:30.269280","APOAPSIS":"548.497","OBJECT_ID":"2021-027AD","GP_ID":"187137960","MEAN_MOTION":"15.06403592","EPHEMERIS_TYPE":"0","ECCENTRICITY":"0.00018690","RCS_SIZE":"LARGE","TLE_LINE1":"1 48119U 21027AD  21287.08021145 -.00000180  00000-0  68257-5 0  9999","PERIAPSIS":"545.908","MEAN_MOTION_DOT":"-0.00000180","REV_AT_EPOCH":"3038","OBJECT_TYPE":"PAYLOAD","LAUNCH_DATE":"2021-04-07","NORAD_CAT_ID":"48119","COUNTRY_CODE":"US","ARG_OF_PERICENTER":"68.4404","DECAY_DATE":null,"SEMIMAJOR_AXIS":"6925.338","FILE":"3161855","SITE":"AFETR","BSTAR":"0.00000682570000","MEAN_ELEMENT_THEORY":"SGP4","CENTER_NAME":"EARTH","CLASSIFICATION_TYPE":"U","REF_FRAME":"TEME","OBJECT_NAME":"STARLINK-2459","MEAN_ANOMALY":"291.6784","TIME_SYSTEM":"UTC"},{"TIME_SYSTEM":"UTC","OBJECT_NAME":"STARLINK-2460","MEAN_ANOMALY":"294.7374","MEAN_ELEMENT_THEORY":"SGP4","CENTER_NAME":"EARTH","FILE":"3162171","SITE":"AFETR","BSTAR":"-0.00014985000000","CLASSIFICATION_TYPE":"U","REF_FRAME":"TEME","ARG_OF_PERICENTER":"65.3828","DECAY_DATE":null,"NORAD_CAT_ID":"48120","LAUNCH_DATE":"2021-04-07","COUNTRY_CODE":"US","SEMIMAJOR_AXIS":"6925.382","OBJECT_TYPE":"PAYLOAD","MEAN_MOTION_DOT":"-0.00002512","REV_AT_EPOCH":"2976","PERIAPSIS":"545.830","ECCENTRICITY":"0.00020470","TLE_LINE1":"1 48120U 21027AE  21287.41748936 -.00002512  00000-0 -14985-3 0  9991","RCS_SIZE":"LARGE","MEAN_MOTION":"15.06388961","GP_ID":"187146827","OBJECT_ID":"2021-027AE","EPHEMERIS_TYPE":"0","EPOCH":"2021-10-14T10:01:11.080704","APOAPSIS":"548.665","RA_OF_ASC_NODE":"186.9358","TLE_LINE2":"2 48120  53.0557 186.9358 0002047  65.3828 294.7374 15.06388961 29764","PERIOD":"95.593","INCLINATION":"53.0557","ELEMENT_SET_NO":"999","MEAN_MOTION_DDOT":"0.0000000000000"}];
